STARLINK-4621           
1 53676U 22105AE  26068.66720969 -.00001041  00000+0 -76561-4 0  9990
2 53676  97.6010 310.1897 0003311  33.3535 326.7897 15.01252403193234
HAWK-8A                 
1 59443U 24066B   26068.40724718  .00002325  00000+0  20899-3 0  9990
2 59443  45.5937  72.3645 0004214 254.4969 105.5447 14.98766556104869
